*******************************************************************************
JPL/HORIZONS                 733 Mocia (A912 SA)           2023-Sep-04 11:08:00
Rec #:     733 (+COV) Soln.date: 2023-Aug-24_15:10:44   # obs: 7906 (1909-2023)
 
IAU76/J2000 helio. ecliptic osc. elements (au, days, deg., period=Julian yrs):
 
  EPOCH=  2457434.5 ! 2016-Feb-16.00 (TDB)         Residual RMS= .2333
   EC= .05998191820601544  QR= 3.194236582462826   TP= 2457229.7192160371
   OM= 341.0083760717318   W=  190.088179436471    IN= 20.29436959270079
   A= 3.398058659006602    MA= 32.22159004021388   ADIST= 3.601880735550379
   PER= 6.26404            N= .157346746           ANGMOM= .031652951
   DAN= 3.59833            DDN= 3.19703            L= 170.4820278
   B= -3.4831133           MOID= 2.20323992        TP= 2015-Jul-26.2192160371
 
Asteroid physical parameters (km, seconds, rotational period in hours):
   GM= n.a.                RAD= 49.2465            ROTPER= 11.374
   H= 9.37                 G= .150                 B-V= .704
                           ALBEDO= .044            STYP= CF

ASTEROID comments: 
1: soln ref.= JPL#61, OCC=0
2: source=ORB
*******************************************************************************


*******************************************************************************
Ephemeris / API_USER Mon Sep  4 11:08:00 2023 Pasadena, USA      / Horizons
*******************************************************************************
Target body name: 733 Mocia (A912 SA)             {source: JPL#61}
Center body name: Solar System Barycenter (0)     {source: DE441}
Center-site name: BODY CENTER
*******************************************************************************
Start time      : A.D. 2023-Aug-12 00:00:00.0000 TDB
Stop  time      : A.D. 2023-Aug-13 00:00:00.0000 TDB
Step-size       : 2880 minutes
*******************************************************************************
Center geodetic : 0.0, 0.0, 0.0                   {E-lon(deg),Lat(deg),Alt(km)}
Center cylindric: 0.0, 0.0, 0.0                   {E-lon(deg),Dxy(km),Dz(km)}
Center radii    : (undefined)
Small perturbers: Yes                             {source: SB441-N16}
Output units    : KM-S
Calendar mode   : Mixed Julian/Gregorian
Output type     : GEOMETRIC cartesian states
Output format   : 2 (position and velocity)
Reference frame : Ecliptic of J2000.0
*******************************************************************************
Initial IAU76/J2000 heliocentric ecliptic osculating elements (au, days, deg.):
  EPOCH=  2457434.5 ! 2016-Feb-16.00 (TDB)         Residual RMS= .2333         
   EC= .05998191820601544  QR= 3.194236582462826   TP= 2457229.7192160371      
   OM= 341.0083760717318   W=  190.088179436471    IN= 20.29436959270079       
  Equivalent ICRF heliocentric cartesian coordinates (au, au/d):
   X=-2.824457076444501E+00  Y=-9.083518393025005E-01  Z=-1.275247048704119E+00
  VX= 4.332265424059978E-03 VY=-6.788450169708492E-03 VZ=-5.597147890574263E-03
Asteroid physical parameters (km, seconds, rotational period in hours):        
   GM= n.a.                RAD= 49.2465            ROTPER= 11.374              
   H= 9.37                 G= .150                 B-V= .704                   
                           ALBEDO= .044            STYP= CF                    
*******************************************************************************
JDTDB
   X     Y     Z
   VX    VY    VZ
*******************************************************************************
$$SOE
2460168.500000000 = A.D. 2023-Aug-12 00:00:00.0000 TDB 
 X = 9.477075753013341E+07 Y =-4.832243899899350E+08 Z =-1.571539051397907E+08
 VX= 1.565296886192928E+01 VY= 1.380439752939056E+00 VZ= 2.373896679786351E+00
$$EOE
*******************************************************************************
 
TIME

  Barycentric Dynamical Time ("TDB" or T_eph) output was requested. This
continuous coordinate time is equivalent to the relativistic proper time
of a clock at rest in a reference frame co-moving with the solar system
barycenter but outside the system's gravity well. It is the independent
variable in the solar system relativistic equations of motion.

  TDB runs at a uniform rate of one SI second per second and is independent
of irregularities in Earth's rotation.
 
CALENDAR SYSTEM

  Mixed calendar mode was active such that calendar dates after AD 1582-Oct-15
(if any) are in the modern Gregorian system. Dates prior to 1582-Oct-5 (if any)
are in the Julian calendar system, which is automatically extended for dates
prior to its adoption on 45-Jan-1 BC.  The Julian calendar is useful for
matching historical dates. The Gregorian calendar more accurately corresponds
to the Earth's orbital motion and seasons. A "Gregorian-only" calendar mode is
available if such physical events are the primary interest.

REFERENCE FRAME AND COORDINATES

  Ecliptic at the standard reference epoch

    Reference epoch: J2000.0
    X-Y plane: adopted Earth orbital plane at the reference epoch
               Note: IAU76 obliquity of 84381.448 arcseconds wrt ICRF X-Y plane
    X-axis   : ICRF
    Z-axis   : perpendicular to the X-Y plane in the directional (+ or -) sense
               of Earth's north pole at the reference epoch.

  Symbol meaning:

    JDTDB    Julian Day Number, Barycentric Dynamical Time
      X      X-component of position vector (km)
      Y      Y-component of position vector (km)
      Z      Z-component of position vector (km)
      VX     X-component of velocity vector (km/sec)                           
      VY     Y-component of velocity vector (km/sec)                           
      VZ     Z-component of velocity vector (km/sec)                           

ABERRATIONS AND CORRECTIONS

 Geometric state vectors have NO corrections or aberrations applied.

Computations by ...

    Solar System Dynamics Group, Horizons On-Line Ephemeris System
    4800 Oak Grove Drive, Jet Propulsion Laboratory
    Pasadena, CA  91109   USA

    General site: https://ssd.jpl.nasa.gov/
    Mailing list: https://ssd.jpl.nasa.gov/email_list.html
    System news : https://ssd.jpl.nasa.gov/horizons/news.html
    User Guide  : https://ssd.jpl.nasa.gov/horizons/manual.html
    Connect     : browser        https://ssd.jpl.nasa.gov/horizons/app.html#/x
                  API            https://ssd-api.jpl.nasa.gov/doc/horizons.html
                  command-line   telnet ssd.jpl.nasa.gov 6775
                  e-mail/batch   https://ssd.jpl.nasa.gov/ftp/ssd/hrzn_batch.txt
                  scripts        https://ssd.jpl.nasa.gov/ftp/ssd/SCRIPTS
    Author      : Jon.D.Giorgini@jpl.nasa.gov
*******************************************************************************
